H1 CPF 01  gfz 2022 09 20 12  7632 terrasarx 
H2 0702601  6201 31698    2022 09 20 12 59 42 2022 09 25 00 00 42   120 1 1  0 0 0
H9
10 0 59843  59742.000000  0   -5186514.454  -2563673.441   3730263.032
10 0 59843  59862.000000  0   -5664115.947  -2582376.289   2941912.654
10 0 59843  59982.000000  0   -6042543.769  -2548432.821   2101752.941
10 0 59843  60102.000000  0   -6314275.869  -2464236.219   1224577.934
10 0 59843  60222.000000  0   -6473725.874  -2333181.088    325838.196
10 0 59843  60342.000000  0   -6517360.350  -2159568.330   -578638.751
10 0 59843  60462.000000  0   -6443776.331  -1948491.216  -1472936.786
10 0 59843  60582.000000  0   -6253733.766  -1705705.511  -2341340.457
10 0 59843  60702.000000  0   -5950144.586  -1437487.433  -3168617.786
10 0 59843  60822.000000  0   -5538019.273  -1150483.053  -3940291.301
10 0 59843  60942.000000  0   -5024373.027   -851553.037  -4642892.004
10 0 59843  61062.000000  0   -4418094.325   -547616.183  -5264191.591
10 0 59843  61182.000000  0   -3729778.927   -245496.141  -5793408.701
10 0 59843  61302.000000  0   -2971534.537     48225.562  -6221385.824
10 0 59843  61422.000000  0   -2156761.766    327346.896  -6540735.592
10 0 59843  61542.000000  0   -1299915.015    586170.040  -6745956.993
10 0 59843  61662.000000  0    -416247.474    819612.396  -6833519.956
10 0 59843  61782.000000  0     478454.960   1023303.000  -6801918.212
10 0 59843  61902.000000  0    1368147.510   1193661.035  -6651693.514
10 0 59843  62022.000000  0    2236808.563   1327957.720  -6385429.434
10 0 59843  62142.000000  0    3068722.875   1424359.922  -6007711.459
10 0 59843  62262.000000  0    3848761.989   1481954.060  -5525054.977
10 0 59843  62382.000000  0    4562657.264   1500750.556  -4945803.837
10 0 59843  62502.000000  0    5197264.332   1481669.108  -4279998.160
10 0 59843  62622.000000  0    5740811.641   1426504.230  -3539210.107
10 0 59843  62742.000000  0    6183127.579   1337871.421  -2736351.320
10 0 59843  62862.000000  0    6515842.660   1219135.025  -1885453.959
10 0 59843  62982.000000  0    6732560.687   1074319.285  -1001426.480
10 0 59843  63102.000000  0    6828992.682    908003.609    -99789.504
10 0 59843  63222.000000  0    6803049.273    725205.426    803602.529
10 0 59843  63342.000000  0    6654890.773    531253.643   1692846.789
10 0 59843  63462.000000  0    6386932.873    331654.227   2552281.667
10 0 59843  63582.000000  0    6003804.362    131952.994   3366771.533
10 0 59843  63702.000000  0    5512261.400    -62401.815   4121980.330
10 0 59843  63822.000000  0    4921059.310   -246191.778   4804627.235
10 0 59843  63942.000000  0    4240787.902   -414554.240   5402722.627
10 0 59843  64062.000000  0    3483670.042   -563098.517   5905776.805
10 0 59843  64182.000000  0    2663333.394   -688008.097   6304979.155
10 0 59843  64302.000000  0    1794558.711   -786128.757   6593346.700
10 0 59843  64422.000000  0     893009.448   -855040.346   6765841.376
10 0 59843  64542.000000  0     -25054.113   -893111.077   6819452.656
10 0 59843  64662.000000  0    -943068.390   -899533.085   6753245.454
10 0 59843  64782.000000  0   -1844464.066   -874339.197   6568374.730
10 0 59843  64902.000000  0   -2712963.473   -818399.796   6268066.188
10 0 59843  65022.000000  0   -3532873.527   -733400.346   5857564.624
10 0 59843  65142.000000  0   -4289372.033   -621800.068   5344049.237
10 0 59843  65262.000000  0   -4968781.499   -486772.825   4736514.530
10 0 59843  65382.000000  0   -5558824.009   -332130.518   4045617.504
10 0 59843  65502.000000  0   -6048851.773   -162230.747   3283493.810
10 0 59843  65622.000000  0   -6430048.472     18129.529   2463546.703
10 0 59843  65742.000000  0   -6695598.685    203832.491   1600210.519
10 0 59843  65862.000000  0   -6840818.783    389566.428    708691.712
10 0 59843  65982.000000  0   -6863245.646    569958.122   -195306.505
10 0 59843  66102.000000  0   -6762680.245    739707.888  -1095870.019
10 0 59843  66222.000000  0   -6541184.467    893723.226  -1977162.820
10 0 59843  66342.000000  0   -6203034.225   1027247.526  -2823711.814
10 0 59843  66462.000000  0   -5754629.547   1135981.791  -3620685.985
10 0 59843  66582.000000  0   -5204359.820   1216194.736  -4354159.185
10 0 59843  66702.000000  0   -4562433.754   1264819.277  -5011351.214
10 0 59843  66822.000000  0   -3840677.594   1279533.299  -5580844.578
10 0 59843  66942.000000  0   -3052307.684   1258823.245  -6052773.485
10 0 59843  67062.000000  0   -2211682.278   1202028.705  -6418983.961
10 0 59843  67182.000000  0   -1334037.265   1109369.111  -6673163.495
10 0 59843  67302.000000  0    -435210.617    981951.300  -6810938.101
10 0 59843  67422.000000  0     468637.775    821757.838  -6829938.233
10 0 59843  67542.000000  0    1361308.384    631617.016  -6729836.568
10 0 59843  67662.000000  0    2226846.905    415153.849  -6512354.571
10 0 59843  67782.000000  0    3049823.341    176723.392  -6181235.579
10 0 59843  67902.000000  0    3815603.399    -78672.586  -5742186.959
10 0 59843  68022.000000  0    4510606.331   -345485.547  -5202790.717
10 0 59843  68142.000000  0    5122548.159   -617733.913  -4572385.107
10 0 59843  68262.000000  0    5640666.088   -889129.940  -3861913.826
10 0 59843  68382.000000  0    6055917.019  -1153216.765  -3083745.194
10 0 59843  68502.000000  0    6361146.861  -1403513.418  -2251463.641
10 0 59843  68622.000000  0    6551226.441  -1633664.339  -1379635.752
10 0 59843  68742.000000  0    6623149.197  -1837589.596   -483554.478
10 0 59843  68862.000000  0    6576087.915  -2009632.034    421032.934
10 0 59843  68982.000000  0    6411408.569  -2144698.051   1318208.928
10 0 59843  69102.000000  0    6132639.117  -2238387.350   2192174.577
10 0 59843  69222.000000  0    5745394.772  -2287109.382   3027536.897
10 0 59843  69342.000000  0    5257260.977  -2288181.862   3809588.286
10 0 59843  69462.000000  0    4677637.038  -2239910.003   4524570.229
10 0 59843  69582.000000  0    4017547.747  -2141644.019   5159916.986
10 0 59843  69702.000000  0    3289425.735  -1993814.874   5704477.645
10 0 59843  69822.000000  0    2506867.651  -1797946.499   6148708.815
10 0 59843  69942.000000  0    1684373.921  -1556644.600   6484836.060
10 0 59843  70062.000000  0     837075.622  -1273563.308   6706984.174
10 0 59843  70182.000000  0     -19546.656   -953349.245   6811274.133
10 0 59843  70302.000000  0    -869945.928   -601564.263   6795885.566
10 0 59843  70422.000000  0   -1698789.602   -224588.926   6661085.982
10 0 59843  70542.000000  0   -2491234.545    170492.848   6409226.454
10 0 59843  70662.000000  0   -3233192.285    576026.045   6044703.931
10 0 59843  70782.000000  0   -3911581.072    983931.402   5573890.044
10 0 59843  70902.000000  0   -4514561.154   1385864.490   5005026.148
10 0 59843  71022.000000  0   -5031747.927   1773385.027   4348084.809
10 0 59843  71142.000000  0   -5454398.831   2138132.992   3614599.200
10 0 59843  71262.000000  0   -5775569.043   2472007.210   2817462.875
10 0 59843  71382.000000  0   -5990233.624   2767342.911   1970703.623
10 0 59843  71502.000000  0   -6095373.409   3017084.262   1089233.911
10 0 59843  71622.000000  0   -6090020.591   3214947.269    188581.274
10 0 59843  71742.000000  0   -5975261.784   3355568.210   -715393.312
10 0 59843  71862.000000  0   -5754200.190   3434633.838  -1606783.484
10 0 59843  71982.000000  0   -5431877.631   3448990.745  -2469926.785
10 0 59843  72102.000000  0   -5015155.917   3396730.091  -3289687.516
10 0 59843  72222.000000  0   -4512563.923   3277246.198  -4051726.101
10 0 59843  72342.000000  0   -3934113.852   3091267.861  -4742749.357
10 0 59843  72462.000000  0   -3291093.261   2840862.504  -5350737.928
10 0 59843  72582.000000  0   -2595838.216   2529413.709  -5865146.459
10 0 59843  72702.000000  0   -1861493.010   2161573.911  -6277077.241
10 0 59843  72822.000000  0   -1101758.758   1743191.659  -6579422.843
10 0 59843  72942.000000  0    -330639.583   1281216.797  -6766976.660
10 0 59843  73062.000000  0     437811.029    783584.853  -6836512.817
10 0 59843  73182.000000  0    1189739.422    259083.282  -6786836.475
10 0 59843  73302.000000  0    1911737.006   -282800.710  -6618802.956
10 0 59843  73422.000000  0    2591073.519   -832047.547  -6335303.389
10 0 59843  73542.000000  0    3215917.703  -1378285.657  -5941220.863
10 0 59843  73662.000000  0    3775541.533  -1910981.986  -5443354.618
10 0 59843  73782.000000  0    4260506.707  -2419641.771  -4850314.830
10 0 59843  73902.000000  0    4662828.741  -2894014.423  -4172384.228
10 0 59843  74022.000000  0    4976114.529  -3324299.749  -3421349.909
10 0 59843  74142.000000  0    5195672.369  -3701350.999  -2610307.007
10 0 59843  74262.000000  0    5318591.001  -4016870.749  -1753434.903
10 0 59843  74382.000000  0    5343783.794  -4263594.027   -865750.296
10 0 59843  74502.000000  0    5271997.408  -4435454.766     37158.666
10 0 59843  74622.000000  0    5105783.440  -4527731.171    939412.181
10 0 59843  74742.000000  0    4849432.396  -4537164.277   1825126.894
10 0 59843  74862.000000  0    4508872.330  -4462046.866   2678704.511
10 0 59843  74982.000000  0    4091535.420  -4302280.449   3485114.320
10 0 59843  75102.000000  0    3606195.579  -4059400.225   4230164.297
10 0 59843  75222.000000  0    3062780.248  -3736566.403   4900755.263
10 0 59843  75342.000000  0    2472162.703  -3338521.666   5485111.686
10 0 59843  75462.000000  0    1845940.393  -2871518.008   5972986.941
10 0 59843  75582.000000  0    1196202.607  -2343213.091   6355838.543
10 0 59843  75702.000000  0     535294.522  -1762540.468   6626971.343
10 0 59843  75822.000000  0    -124418.719  -1139555.597   6781648.463
10 0 59843  75942.000000  0    -770782.807   -485259.663   6817169.008
10 0 59843  76062.000000  0   -1392077.066    188595.253   6732911.847
10 0 59843  76182.000000  0   -1977226.218    869716.781   6530345.836
99
